[{"OBJECT_NAME":"JCSAT-13","OBJECT_ID":"2012-023A","EPOCH":"2023-04-27T13:30:14.280192","MEAN_MOTION":1.00271959,"ECCENTRICITY":0.0002696,"INCLINATION":0.0172,"RA_OF_ASC_NODE":243.5743,"ARG_OF_PERICENTER":187.6556,"MEAN_ANOMALY":110.6196,"EPHEMERIS_TYPE":0,"CLASSIFICATION_TYPE":"U","NORAD_CAT_ID":38331,"ELEMENT_SET_NO":999,"REV_AT_EPOCH":4007,"BSTAR":0,"MEAN_MOTION_DOT":-3.57e-6,"MEAN_MOTION_DDOT":0},{"OBJECT_NAME":"VINASAT-2","OBJECT_ID":"2012-023B","EPOCH":"2023-04-27T13:32:29.839200","MEAN_MOTION":1.00269956,"ECCENTRICITY":0.0002235,"INCLINATION":0.0122,"RA_OF_ASC_NODE":62.5055,"ARG_OF_PERICENTER":350.9973,"MEAN_ANOMALY":136.7502,"EPHEMERIS_TYPE":0,"CLASSIFICATION_TYPE":"U","NORAD_CAT_ID":38332,"ELEMENT_SET_NO":999,"REV_AT_EPOCH":4011,"BSTAR":0,"MEAN_MOTION_DOT":-3.3e-6,"MEAN_MOTION_DDOT":0},{"OBJECT_NAME":"NIMIQ 6","OBJECT_ID":"2012-026A","EPOCH":"2023-04-26T14:06:34.619616","MEAN_MOTION":1.00271793,"ECCENTRICITY":0.0002621,"INCLINATION":0.0509,"RA_OF_ASC_NODE":77.9432,"ARG_OF_PERICENTER":304.4931,"MEAN_ANOMALY":312.4458,"EPHEMERIS_TYPE":0,"CLASSIFICATION_TYPE":"U","NORAD_CAT_ID":38342,"ELEMENT_SET_NO":999,"REV_AT_EPOCH":3891,"BSTAR":0,"MEAN_MOTION_DOT":-1.76e-6,"MEAN_MOTION_DDOT":0},{"OBJECT_NAME":"CHINASAT 2A (ZX 2A)","OBJECT_ID":"2012-028A","EPOCH":"2023-04-27T01:21:42.492384","MEAN_MOTION":1.00273287,"ECCENTRICITY":0.0001953,"INCLINATION":0.0307,"RA_OF_ASC_NODE":323.3555,"ARG_OF_PERICENTER":43.5599,"MEAN_ANOMALY":326.5598,"EPHEMERIS_TYPE":0,"CLASSIFICATION_TYPE":"U","NORAD_CAT_ID":38352,"ELEMENT_SET_NO":999,"REV_AT_EPOCH":4013,"BSTAR":0,"MEAN_MOTION_DOT":-2.95e-6,"MEAN_MOTION_DDOT":0},{"OBJECT_NAME":"INTELSAT 19 (IS-19)","OBJECT_ID":"2012-030A","EPOCH":"2023-04-26T20:57:42.719904","MEAN_MOTION":1.00268921,"ECCENTRICITY":0.0002976,"INCLINATION":0.0115,"RA_OF_ASC_NODE":253.5395,"ARG_OF_PERICENTER":139.9791,"MEAN_ANOMALY":301.5202,"EPHEMERIS_TYPE":0,"CLASSIFICATION_TYPE":"U","NORAD_CAT_ID":38356,"ELEMENT_SET_NO":999,"REV_AT_EPOCH":3893,"BSTAR":0,"MEAN_MOTION_DOT":-5.9e-7,"MEAN_MOTION_DDOT":0},{"OBJECT_NAME":"ECHOSTAR 17","OBJECT_ID":"2012-035A","EPOCH":"2023-04-27T00:21:25.059168","MEAN_MOTION":1.00272722,"ECCENTRICITY":0.0001574,"INCLINATION":0.0123,"RA_OF_ASC_NODE":198.0953,"ARG_OF_PERICENTER":205.7993,"MEAN_ANOMALY":69.0953,"EPHEMERIS_TYPE":0,"CLASSIFICATION_TYPE":"U","NORAD_CAT_ID":38551,"ELEMENT_SET_NO":999,"REV_AT_EPOCH":3962,"BSTAR":0,"MEAN_MOTION_DOT":-7.7e-7,"MEAN_MOTION_DDOT":0},{"OBJECT_NAME":"METEOSAT-10 (MSG-3)","OBJECT_ID":"2012-035B","EPOCH":"2023-04-26T19:42:18.111744","MEAN_MOTION":1.00275166,"ECCENTRICITY":4.58e-5,"INCLINATION":2.0726,"RA_OF_ASC_NODE":54.3508,"ARG_OF_PERICENTER":269.7826,"MEAN_ANOMALY":185.7344,"EPHEMERIS_TYPE":0,"CLASSIFICATION_TYPE":"U","NORAD_CAT_ID":38552,"ELEMENT_SET_NO":999,"REV_AT_EPOCH":3935,"BSTAR":0,"MEAN_MOTION_DOT":-9.0e-8,"MEAN_MOTION_DDOT":0},{"OBJECT_NAME":"SES-5","OBJECT_ID":"2012-036A","EPOCH":"2023-04-26T18:00:37.971936","MEAN_MOTION":1.00272838,"ECCENTRICITY":0.0001788,"INCLINATION":0.0479,"RA_OF_ASC_NODE":296.5537,"ARG_OF_PERICENTER":87.8013,"MEAN_ANOMALY":105.267,"EPHEMERIS_TYPE":0,"CLASSIFICATION_TYPE":"U","NORAD_CAT_ID":38652,"ELEMENT_SET_NO":999,"REV_AT_EPOCH":3298,"BSTAR":0,"MEAN_MOTION_DOT":3.2e-7,"MEAN_MOTION_DDOT":0},{"OBJECT_NAME":"TIANLIAN 1-03","OBJECT_ID":"2012-040A","EPOCH":"2023-04-25T16:16:47.265312","MEAN_MOTION":1.0027744,"ECCENTRICITY":0.0008264,"INCLINATION":2.8089,"RA_OF_ASC_NODE":87.5217,"ARG_OF_PERICENTER":344.6677,"MEAN_ANOMALY":45.9179,"EPHEMERIS_TYPE":0,"CLASSIFICATION_TYPE":"U","NORAD_CAT_ID":38730,"ELEMENT_SET_NO":999,"REV_AT_EPOCH":3947,"BSTAR":0,"MEAN_MOTION_DOT":1.24e-6,"MEAN_MOTION_DDOT":0},{"OBJECT_NAME":"INTELSAT 20 (IS-20)","OBJECT_ID":"2012-043A","EPOCH":"2023-04-26T19:59:42.809568","MEAN_MOTION":1.00270087,"ECCENTRICITY":0.0001715,"INCLINATION":0.0208,"RA_OF_ASC_NODE":150.9035,"ARG_OF_PERICENTER":31.4096,"MEAN_ANOMALY":40.6761,"EPHEMERIS_TYPE":0,"CLASSIFICATION_TYPE":"U","NORAD_CAT_ID":38740,"ELEMENT_SET_NO":999,"REV_AT_EPOCH":3932,"BSTAR":0,"MEAN_MOTION_DOT":-2.6e-7,"MEAN_MOTION_DDOT":0},{"OBJECT_NAME":"HYLAS 2","OBJECT_ID":"2012-043B","EPOCH":"2023-04-26T21:46:42.777984","MEAN_MOTION":1.00274575,"ECCENTRICITY":0.0002048,"INCLINATION":0.0457,"RA_OF_ASC_NODE":81.5861,"ARG_OF_PERICENTER":305.0658,"MEAN_ANOMALY":185.7061,"EPHEMERIS_TYPE":0,"CLASSIFICATION_TYPE":"U","NORAD_CAT_ID":38741,"ELEMENT_SET_NO":999,"REV_AT_EPOCH":3926,"BSTAR":0,"MEAN_MOTION_DOT":1.52e-6,"MEAN_MOTION_DDOT":0},{"OBJECT_NAME":"INTELSAT 21 (IS-21)","OBJECT_ID":"2012-045A","EPOCH":"2023-04-27T04:15:10.161216","MEAN_MOTION":1.00273582,"ECCENTRICITY":0.0002097,"INCLINATION":0.0141,"RA_OF_ASC_NODE":280.9289,"ARG_OF_PERICENTER":103.8518,"MEAN_ANOMALY":195.9146,"EPHEMERIS_TYPE":0,"CLASSIFICATION_TYPE":"U","NORAD_CAT_ID":38749,"ELEMENT_SET_NO":999,"REV_AT_EPOCH":3913,"BSTAR":0,"MEAN_MOTION_DOT":-2.87e-6,"MEAN_MOTION_DDOT":0},{"OBJECT_NAME":"ASTRA 2F","OBJECT_ID":"2012-051A","EPOCH":"2023-04-27T02:27:42.698592","MEAN_MOTION":1.00271352,"ECCENTRICITY":0.0001027,"INCLINATION":0.0465,"RA_OF_ASC_NODE":238.3116,"ARG_OF_PERICENTER":38.2122,"MEAN_ANOMALY":3.4243,"EPHEMERIS_TYPE":0,"CLASSIFICATION_TYPE":"U","NORAD_CAT_ID":38778,"ELEMENT_SET_NO":999,"REV_AT_EPOCH":3878,"BSTAR":0,"MEAN_MOTION_DOT":1.48e-6,"MEAN_MOTION_DDOT":0},{"OBJECT_NAME":"GSAT-10","OBJECT_ID":"2012-051B","EPOCH":"2023-04-26T20:31:07.376736","MEAN_MOTION":1.00273206,"ECCENTRICITY":0.0001854,"INCLINATION":0.0247,"RA_OF_ASC_NODE":131.6849,"ARG_OF_PERICENTER":186.8839,"MEAN_ANOMALY":286.8,"EPHEMERIS_TYPE":0,"CLASSIFICATION_TYPE":"U","NORAD_CAT_ID":38779,"ELEMENT_SET_NO":999,"REV_AT_EPOCH":3878,"BSTAR":0,"MEAN_MOTION_DOT":-1.67e-6,"MEAN_MOTION_DDOT":0},{"OBJECT_NAME":"INTELSAT 23 (IS-23)","OBJECT_ID":"2012-057A","EPOCH":"2023-04-27T03:50:17.990880","MEAN_MOTION":1.00271189,"ECCENTRICITY":0.0001617,"INCLINATION":0.0199,"RA_OF_ASC_NODE":248.4878,"ARG_OF_PERICENTER":127.4675,"MEAN_ANOMALY":203.53,"EPHEMERIS_TYPE":0,"CLASSIFICATION_TYPE":"U","NORAD_CAT_ID":38867,"ELEMENT_SET_NO":999,"REV_AT_EPOCH":3860,"BSTAR":0,"MEAN_MOTION_DOT":-2.86e-6,"MEAN_MOTION_DDOT":0},{"OBJECT_NAME":"BEIDOU-2 G6","OBJECT_ID":"2012-059A","EPOCH":"2023-04-26T20:31:07.387968","MEAN_MOTION":1.0027359,"ECCENTRICITY":0.0011222,"INCLINATION":1.7053,"RA_OF_ASC_NODE":82.3777,"ARG_OF_PERICENTER":308.6951,"MEAN_ANOMALY":215.373,"EPHEMERIS_TYPE":0,"CLASSIFICATION_TYPE":"U","NORAD_CAT_ID":38953,"ELEMENT_SET_NO":999,"REV_AT_EPOCH":3840,"BSTAR":0,"MEAN_MOTION_DOT":-1.78e-6,"MEAN_MOTION_DDOT":0},{"OBJECT_NAME":"LUCH-5B","OBJECT_ID":"2012-061A","EPOCH":"2023-04-26T16:11:12.975936","MEAN_MOTION":1.00270952,"ECCENTRICITY":0.0002231,"INCLINATION":7.9718,"RA_OF_ASC_NODE":60.1909,"ARG_OF_PERICENTER":18.0157,"MEAN_ANOMALY":2.6638,"EPHEMERIS_TYPE":0,"CLASSIFICATION_TYPE":"U","NORAD_CAT_ID":38977,"ELEMENT_SET_NO":999,"REV_AT_EPOCH":3867,"BSTAR":0,"MEAN_MOTION_DOT":-1.35e-6,"MEAN_MOTION_DDOT":0}]
