JCSAT-13                
1 38331U 12023A   23117.56266528 -.00000357  00000+0  00000+0 0  9994
2 38331   0.0172 243.5743 0002696 187.6556 110.6196  1.00271959 40078
VINASAT-2               
1 38332U 12023B   23117.56423425 -.00000330  00000+0  00000+0 0  9997
2 38332   0.0122  62.5055 0002235 350.9973 136.7502  1.00269956 40115
NIMIQ 6                 
1 38342U 12026A   23116.58790069 -.00000176  00000+0  00000+0 0  9991
2 38342   0.0509  77.9432 0002621 304.4931 312.4458  1.00271793 38911
CHINASAT 2A (ZX 2A)     
1 38352U 12028A   23117.05674181 -.00000295  00000+0  00000+0 0  9995
2 38352   0.0307 323.3555 0001953  43.5599 326.5598  1.00273287 40138
INTELSAT 19 (IS-19)     
1 38356U 12030A   23116.87341111 -.00000059  00000+0  00000+0 0  9993
2 38356   0.0115 253.5395 0002976 139.9791 301.5202  1.00268921 38934
ECHOSTAR 17             
1 38551U 12035A   23117.01487337 -.00000077  00000+0  00000+0 0  9993
2 38551   0.0123 198.0953 0001574 205.7993  69.0953  1.00272722 39622
METEOSAT-10 (MSG-3)     
1 38552U 12035B   23116.82104296 -.00000009  00000+0  00000+0 0  9997
2 38552   2.0726  54.3508 0000458 269.7826 185.7344  1.00275166 39354
SES-5                   
1 38652U 12036A   23116.75043949  .00000032  00000+0  00000+0 0  9993
2 38652   0.0479 296.5537 0001788  87.8013 105.2670  1.00272838 32988
TIANLIAN 1-03           
1 38730U 12040A   23115.67832483  .00000124  00000+0  00000+0 0  9996
2 38730   2.8089  87.5217 0008264 344.6677  45.9179  1.00277440 39470
INTELSAT 20 (IS-20)     
1 38740U 12043A   23116.83313437 -.00000026  00000+0  00000+0 0  9994
2 38740   0.0208 150.9035 0001715  31.4096  40.6761  1.00270087 39320
HYLAS 2                 
1 38741U 12043B   23116.90743956  .00000152  00000+0  00000+0 0  9995
2 38741   0.0457  81.5861 0002048 305.0658 185.7061  1.00274575 39260
INTELSAT 21 (IS-21)     
1 38749U 12045A   23117.17720094 -.00000287  00000+0  00000+0 0  9993
2 38749   0.0141 280.9289 0002097 103.8518 195.9146  1.00273582 39130
ASTRA 2F                
1 38778U 12051A   23117.10257753  .00000148  00000+0  00000+0 0  9997
2 38778   0.0465 238.3116 0001027  38.2122   3.4243  1.00271352 38785
GSAT-10                 
1 38779U 12051B   23116.85494649 -.00000167  00000+0  00000+0 0  9998
2 38779   0.0247 131.6849 0001854 186.8839 286.8000  1.00273206 38783
INTELSAT 23 (IS-23)     
1 38867U 12057A   23117.15993045 -.00000286  00000+0  00000+0 0  9992
2 38867   0.0199 248.4878 0001617 127.4675 203.5300  1.00271189 38600
BEIDOU-2 G6             
1 38953U 12059A   23116.85494662 -.00000178  00000+0  00000+0 0  9997
2 38953   1.7053  82.3777 0011222 308.6951 215.3730  1.00273590 38403
LUCH-5B                 
1 38977U 12061A   23116.67445574 -.00000135  00000+0  00000+0 0  9997
2 38977   7.9718  60.1909 0002231  18.0157   2.6638  1.00270952 38678
